UNISAT-6                
1 40012U 14033C   26065.98293058  .00004162  00000+0  45494-3 0  9992
2 40012  97.7723 220.6173 0046291  46.6815 313.8246 14.87612675630965
DUCHIFAT-1              
1 40021U 14033M   26066.05234075  .00060805  00000+0  11017-2 0  9994
2 40021  98.0633 112.1690 0006412  92.6650 267.5333 15.49410411639860
QB50P1                  
1 40025U 14033R   26066.00469717  .00011500  00000+0  59414-3 0  9998
2 40025  98.1010  70.1061 0007996 204.0446 156.0413 15.16446250637536
LILACSAT-2              
1 40908U 15049K   26066.18770656  .00020006  00000+0  38521-3 0  9999
2 40908  97.4810  99.3250 0005592 257.9142 102.1482 15.47907383579951
FOX-1A (AO-85)          
1 40967U 15058D   26065.90829786  .00004657  00000+0  42282-3 0  9995
2 40967  64.7742 236.6764 0129055  97.0393 264.5416 14.90325083 98320
CAS-2T & KS-1Q          
1 41847U 16066G   26066.14406673  .00001577  00000+0  22823-3 0  9993
2 41847  98.3891 143.0222 0343748  79.1861 284.7817 14.44458817490061
RADFXSAT (FOX-1B)       
1 43017U 17073E   26066.07847335  .00011461  00000+0  52006-3 0  9998
2 43017  97.4859 295.4303 0154813 321.2352  37.7849 15.10805147449967
DIWATA-2B               
1 43678U 18084H   26066.18727056  .00002333  00000+0  19292-3 0  9991
2 43678  98.1032 258.1213 0011477 134.5325 225.6837 14.99942835400920
ES'HAIL 2               
1 43700U 18090A   26066.07802911  .00000142  00000+0  00000+0 0  9995
2 43700   0.0193 183.1760 0001108 158.0769 237.3854  1.00274545 26650
FOX-1CLIFF (AO-95)      
1 43770U 18099N   26066.14878925  .00013687  00000+0  56148-3 0  9993
2 43770  97.4509 126.8847 0008559 356.7008   3.4171 15.24326342397668
ITASAT                  
1 43786U 18099AE  26066.13722307  .00008181  00000+0  40912-3 0  9996
2 43786  97.4167 119.7175 0012463 355.9166   4.1964 15.17621645397423
JY1SAT (JO-97)          
1 43803U 18099AX  26066.13608608  .00020506  00000+0  70360-3 0  9998
2 43803  97.4254 128.8127 0004717 269.3356  90.7344 15.30176025398000
UWE-4                   
1 43880U 18111E   26066.01081292  .00038561  00000+0  97168-3 0  9994
2 43880  97.5854 350.2022 0008026 350.8798   9.2300 15.39758612395023
TIANYAN 01              
1 44881U 19093C   26066.19481071  .00000454  00000+0  57474-4 0  9991
2 44881  97.7616 140.8921 0014942  65.2781 294.9988 14.86332196336269
RS-44 & BREEZE-KM R/B   
1 44909U 19096E   26066.05828493  .00000004  00000+0 -31388-4 0  9991
2 44909  82.5198  47.5631 0218032  23.4595 337.6271 12.79747410289281
SALSAT                  
1 46495U 20068K   26065.92289661  .00011302  00000+0  41467-3 0  9997
2 46495  97.8857  62.8923 0008446 308.5318  51.5163 15.28115498299739
XW-3 (CAS-9)            
1 50466U 21131B   26066.21301164  .00000575  00000+0  19153-3 0  9995
2 50466  98.4965 159.1825 0004941  56.1116 304.0542 14.41246797220426
