[{"OBJECT_NAME":"UNISAT-6","OBJECT_ID":"2014-033C","EPOCH":"2026-03-06T23:35:25.202112","MEAN_MOTION":14.87612675,"ECCENTRICITY":0.0046291,"INCLINATION":97.7723,"RA_OF_ASC_NODE":220.6173,"ARG_OF_PERICENTER":46.6815,"MEAN_ANOMALY":313.8246,"EPHEMERIS_TYPE":0,"CLASSIFICATION_TYPE":"U","NORAD_CAT_ID":40012,"ELEMENT_SET_NO":999,"REV_AT_EPOCH":63096,"BSTAR":0.00045494,"MEAN_MOTION_DOT":4.162e-5,"MEAN_MOTION_DDOT":0},{"OBJECT_NAME":"DUCHIFAT-1","OBJECT_ID":"2014-033M","EPOCH":"2026-03-07T01:15:22.240800","MEAN_MOTION":15.49410411,"ECCENTRICITY":0.0006412,"INCLINATION":98.0633,"RA_OF_ASC_NODE":112.169,"ARG_OF_PERICENTER":92.665,"MEAN_ANOMALY":267.5333,"EPHEMERIS_TYPE":0,"CLASSIFICATION_TYPE":"U","NORAD_CAT_ID":40021,"ELEMENT_SET_NO":999,"REV_AT_EPOCH":63986,"BSTAR":0.0011017,"MEAN_MOTION_DOT":0.00060805,"MEAN_MOTION_DDOT":0},{"OBJECT_NAME":"QB50P1","OBJECT_ID":"2014-033R","EPOCH":"2026-03-07T00:06:45.835488","MEAN_MOTION":15.1644625,"ECCENTRICITY":0.0007996,"INCLINATION":98.101,"RA_OF_ASC_NODE":70.1061,"ARG_OF_PERICENTER":204.0446,"MEAN_ANOMALY":156.0413,"EPHEMERIS_TYPE":0,"CLASSIFICATION_TYPE":"U","NORAD_CAT_ID":40025,"ELEMENT_SET_NO":999,"REV_AT_EPOCH":63753,"BSTAR":0.00059414,"MEAN_MOTION_DOT":0.000115,"MEAN_MOTION_DDOT":0},{"OBJECT_NAME":"LILACSAT-2","OBJECT_ID":"2015-049K","EPOCH":"2026-03-07T04:30:17.846784","MEAN_MOTION":15.47907383,"ECCENTRICITY":0.0005592,"INCLINATION":97.481,"RA_OF_ASC_NODE":99.325,"ARG_OF_PERICENTER":257.9142,"MEAN_ANOMALY":102.1482,"EPHEMERIS_TYPE":0,"CLASSIFICATION_TYPE":"U","NORAD_CAT_ID":40908,"ELEMENT_SET_NO":999,"REV_AT_EPOCH":57995,"BSTAR":0.00038521,"MEAN_MOTION_DOT":0.00020006,"MEAN_MOTION_DDOT":0},{"OBJECT_NAME":"FOX-1A (AO-85)","OBJECT_ID":"2015-058D","EPOCH":"2026-03-06T21:47:56.935104","MEAN_MOTION":14.90325083,"ECCENTRICITY":0.0129055,"INCLINATION":64.7742,"RA_OF_ASC_NODE":236.6764,"ARG_OF_PERICENTER":97.0393,"MEAN_ANOMALY":264.5416,"EPHEMERIS_TYPE":0,"CLASSIFICATION_TYPE":"U","NORAD_CAT_ID":40967,"ELEMENT_SET_NO":999,"REV_AT_EPOCH":9832,"BSTAR":0.00042282,"MEAN_MOTION_DOT":4.657e-5,"MEAN_MOTION_DDOT":0},{"OBJECT_NAME":"CAS-2T & KS-1Q","OBJECT_ID":"2016-066G","EPOCH":"2026-03-07T03:27:27.365472","MEAN_MOTION":14.44458817,"ECCENTRICITY":0.0343748,"INCLINATION":98.3891,"RA_OF_ASC_NODE":143.0222,"ARG_OF_PERICENTER":79.1861,"MEAN_ANOMALY":284.7817,"EPHEMERIS_TYPE":0,"CLASSIFICATION_TYPE":"U","NORAD_CAT_ID":41847,"ELEMENT_SET_NO":999,"REV_AT_EPOCH":49006,"BSTAR":0.00022823,"MEAN_MOTION_DOT":1.577e-5,"MEAN_MOTION_DDOT":0},{"OBJECT_NAME":"RADFXSAT (FOX-1B)","OBJECT_ID":"2017-073E","EPOCH":"2026-03-07T01:53:00.097440","MEAN_MOTION":15.10805147,"ECCENTRICITY":0.0154813,"INCLINATION":97.4859,"RA_OF_ASC_NODE":295.4303,"ARG_OF_PERICENTER":321.2352,"MEAN_ANOMALY":37.7849,"EPHEMERIS_TYPE":0,"CLASSIFICATION_TYPE":"U","NORAD_CAT_ID":43017,"ELEMENT_SET_NO":999,"REV_AT_EPOCH":44996,"BSTAR":0.00052006,"MEAN_MOTION_DOT":0.00011461,"MEAN_MOTION_DDOT":0},{"OBJECT_NAME":"DIWATA-2B","OBJECT_ID":"2018-084H","EPOCH":"2026-03-07T04:29:40.176384","MEAN_MOTION":14.99942835,"ECCENTRICITY":0.0011477,"INCLINATION":98.1032,"RA_OF_ASC_NODE":258.1213,"ARG_OF_PERICENTER":134.5325,"MEAN_ANOMALY":225.6837,"EPHEMERIS_TYPE":0,"CLASSIFICATION_TYPE":"U","NORAD_CAT_ID":43678,"ELEMENT_SET_NO":999,"REV_AT_EPOCH":40092,"BSTAR":0.00019292,"MEAN_MOTION_DOT":2.333e-5,"MEAN_MOTION_DDOT":0},{"OBJECT_NAME":"ES'HAIL 2","OBJECT_ID":"2018-090A","EPOCH":"2026-03-07T01:52:21.715104","MEAN_MOTION":1.00274545,"ECCENTRICITY":0.0001108,"INCLINATION":0.0193,"RA_OF_ASC_NODE":183.176,"ARG_OF_PERICENTER":158.0769,"MEAN_ANOMALY":237.3854,"EPHEMERIS_TYPE":0,"CLASSIFICATION_TYPE":"U","NORAD_CAT_ID":43700,"ELEMENT_SET_NO":999,"REV_AT_EPOCH":2665,"BSTAR":0,"MEAN_MOTION_DOT":1.42e-6,"MEAN_MOTION_DDOT":0},{"OBJECT_NAME":"FOX-1CLIFF (AO-95)","OBJECT_ID":"2018-099N","EPOCH":"2026-03-07T03:34:15.391200","MEAN_MOTION":15.24326342,"ECCENTRICITY":0.0008559,"INCLINATION":97.4509,"RA_OF_ASC_NODE":126.8847,"ARG_OF_PERICENTER":356.7008,"MEAN_ANOMALY":3.4171,"EPHEMERIS_TYPE":0,"CLASSIFICATION_TYPE":"U","NORAD_CAT_ID":43770,"ELEMENT_SET_NO":999,"REV_AT_EPOCH":39766,"BSTAR":0.00056148,"MEAN_MOTION_DOT":0.00013687,"MEAN_MOTION_DDOT":0},{"OBJECT_NAME":"ITASAT","OBJECT_ID":"2018-099AE","EPOCH":"2026-03-07T03:17:36.073248","MEAN_MOTION":15.17621645,"ECCENTRICITY":0.0012463,"INCLINATION":97.4167,"RA_OF_ASC_NODE":119.7175,"ARG_OF_PERICENTER":355.9166,"MEAN_ANOMALY":4.1964,"EPHEMERIS_TYPE":0,"CLASSIFICATION_TYPE":"U","NORAD_CAT_ID":43786,"ELEMENT_SET_NO":999,"REV_AT_EPOCH":39742,"BSTAR":0.00040912,"MEAN_MOTION_DOT":8.181e-5,"MEAN_MOTION_DDOT":0},{"OBJECT_NAME":"JY1SAT (JO-97)","OBJECT_ID":"2018-099AX","EPOCH":"2026-03-07T03:15:57.837312","MEAN_MOTION":15.30176025,"ECCENTRICITY":0.0004717,"INCLINATION":97.4254,"RA_OF_ASC_NODE":128.8127,"ARG_OF_PERICENTER":269.3356,"MEAN_ANOMALY":90.7344,"EPHEMERIS_TYPE":0,"CLASSIFICATION_TYPE":"U","NORAD_CAT_ID":43803,"ELEMENT_SET_NO":999,"REV_AT_EPOCH":39800,"BSTAR":0.0007036,"MEAN_MOTION_DOT":0.00020506,"MEAN_MOTION_DDOT":0},{"OBJECT_NAME":"UWE-4","OBJECT_ID":"2018-111E","EPOCH":"2026-03-07T00:15:34.236288","MEAN_MOTION":15.39758612,"ECCENTRICITY":0.0008026,"INCLINATION":97.5854,"RA_OF_ASC_NODE":350.2022,"ARG_OF_PERICENTER":350.8798,"MEAN_ANOMALY":9.23,"EPHEMERIS_TYPE":0,"CLASSIFICATION_TYPE":"U","NORAD_CAT_ID":43880,"ELEMENT_SET_NO":999,"REV_AT_EPOCH":39502,"BSTAR":0.00097168,"MEAN_MOTION_DOT":0.00038561,"MEAN_MOTION_DDOT":0},{"OBJECT_NAME":"TIANYAN 01","OBJECT_ID":"2019-093C","EPOCH":"2026-03-07T04:40:31.645344","MEAN_MOTION":14.86332196,"ECCENTRICITY":0.0014942,"INCLINATION":97.7616,"RA_OF_ASC_NODE":140.8921,"ARG_OF_PERICENTER":65.2781,"MEAN_ANOMALY":294.9988,"EPHEMERIS_TYPE":0,"CLASSIFICATION_TYPE":"U","NORAD_CAT_ID":44881,"ELEMENT_SET_NO":999,"REV_AT_EPOCH":33626,"BSTAR":5.7474e-5,"MEAN_MOTION_DOT":4.54e-6,"MEAN_MOTION_DDOT":0},{"OBJECT_NAME":"RS-44 & BREEZE-KM R/B","OBJECT_ID":"2019-096E","EPOCH":"2026-03-07T01:23:55.817952","MEAN_MOTION":12.7974741,"ECCENTRICITY":0.0218032,"INCLINATION":82.5198,"RA_OF_ASC_NODE":47.5631,"ARG_OF_PERICENTER":23.4595,"MEAN_ANOMALY":337.6271,"EPHEMERIS_TYPE":0,"CLASSIFICATION_TYPE":"U","NORAD_CAT_ID":44909,"ELEMENT_SET_NO":999,"REV_AT_EPOCH":28928,"BSTAR":-3.1388e-5,"MEAN_MOTION_DOT":4.0e-8,"MEAN_MOTION_DDOT":0},{"OBJECT_NAME":"SALSAT","OBJECT_ID":"2020-068K","EPOCH":"2026-03-06T22:08:58.267104","MEAN_MOTION":15.28115498,"ECCENTRICITY":0.0008446,"INCLINATION":97.8857,"RA_OF_ASC_NODE":62.8923,"ARG_OF_PERICENTER":308.5318,"MEAN_ANOMALY":51.5163,"EPHEMERIS_TYPE":0,"CLASSIFICATION_TYPE":"U","NORAD_CAT_ID":46495,"ELEMENT_SET_NO":999,"REV_AT_EPOCH":29973,"BSTAR":0.00041467,"MEAN_MOTION_DOT":0.00011302,"MEAN_MOTION_DDOT":0},{"OBJECT_NAME":"XW-3 (CAS-9)","OBJECT_ID":"2021-131B","EPOCH":"2026-03-07T05:06:44.205696","MEAN_MOTION":14.41246797,"ECCENTRICITY":0.0004941,"INCLINATION":98.4965,"RA_OF_ASC_NODE":159.1825,"ARG_OF_PERICENTER":56.1116,"MEAN_ANOMALY":304.0542,"EPHEMERIS_TYPE":0,"CLASSIFICATION_TYPE":"U","NORAD_CAT_ID":50466,"ELEMENT_SET_NO":999,"REV_AT_EPOCH":22042,"BSTAR":0.00019153,"MEAN_MOTION_DOT":5.75e-6,"MEAN_MOTION_DDOT":0}]
